RADARSAT-2              
1 32382U 07061A   26186.30020977  .00000106  00000+0  57921-4 0  9997
2 32382  98.5777 192.9741 0001307  85.0939 275.0393 14.29981602968544
